start=new Date('2023-05-27T00:00:00.000Z').valueOf();
sats=[{"SEMIMAJOR_AXIS":"6925.366","REF_FRAME":"TEME","REV_AT_EPOCH":"12359","MEAN_MOTION_DOT":"0.00000164","ARG_OF_PERICENTER":"105.2402","FILE":"3917309","MEAN_MOTION_DDOT":"0.0000000000000","PERIAPSIS":"546.397","MEAN_ELEMENT_THEORY":"SGP4","BSTAR":"0.00002989500000","NORAD_CAT_ID":"47778","DECAY_DATE":null,"EPHEMERIS_TYPE":"0","COUNTRY_CODE":"US","RA_OF_ASC_NODE":"103.8017","MEAN_ANOMALY":"254.8720","INCLINATION":"53.0533","EPOCH":"2023-05-26T04:45:39.689856","TIME_SYSTEM":"UTC","ECCENTRICITY":"0.00012040","GP_ID":"232524809","APOAPSIS":"548.065","OBJECT_NAME":"STARLINK-2211","TLE_LINE2":"2 47778  53.0533 103.8017 0001204 105.2402 254.8720 15.06394221123596","OBJECT_TYPE":"PAYLOAD","CENTER_NAME":"EARTH","ELEMENT_SET_NO":"999","LAUNCH_DATE":"2021-03-04","SITE":"AFETR","OBJECT_ID":"2021-017BJ","TLE_LINE1":"1 47778U 21017BJ  23146.19837604  .00000164  00000-0  29895-4 0  9996","PERIOD":"95.593","CLASSIFICATION_TYPE":"U","RCS_SIZE":"LARGE","MEAN_MOTION":"15.06394221"},{"MEAN_MOTION_DOT":"0.00080797","ARG_OF_PERICENTER":"68.9574","SEMIMAJOR_AXIS":"6830.460","REF_FRAME":"TEME","REV_AT_EPOCH":"12426","MEAN_MOTION_DDOT":"0.0000000000000","FILE":"3917737","MEAN_ELEMENT_THEORY":"SGP4","BSTAR":"0.00212120000000","PERIAPSIS":"445.350","MEAN_ANOMALY":"351.4813","DECAY_DATE":null,"NORAD_CAT_ID":"47779","EPHEMERIS_TYPE":"0","RA_OF_ASC_NODE":"60.9992","COUNTRY_CODE":"US","EPOCH":"2023-05-26T22:00:01.999584","TIME_SYSTEM":"UTC","INCLINATION":"53.0451","TLE_LINE2":"2 47779  53.0451  60.9992 0010212  68.9574 351.4813 15.37898964124264","OBJECT_TYPE":"PAYLOAD","ECCENTRICITY":"0.00102120","GP_ID":"232561191","APOAPSIS":"459.301","OBJECT_NAME":"STARLINK-2212","SITE":"AFETR","OBJECT_ID":"2021-017BK","TLE_LINE1":"1 47779U 21017BK  23146.91668981  .00080797  00000-0  21212-2 0  9990","CENTER_NAME":"EARTH","ELEMENT_SET_NO":"999","LAUNCH_DATE":"2021-03-04","MEAN_MOTION":"15.37898964","PERIOD":"93.634","CLASSIFICATION_TYPE":"U","RCS_SIZE":"LARGE"},{"ARG_OF_PERICENTER":"99.2618","MEAN_MOTION_DOT":"0.00003015","REF_FRAME":"TEME","SEMIMAJOR_AXIS":"6925.325","REV_AT_EPOCH":"12437","MEAN_MOTION_DDOT":"0.0000000000000","FILE":"3917850","BSTAR":"0.00022118000000","MEAN_ELEMENT_THEORY":"SGP4","PERIAPSIS":"546.416","MEAN_ANOMALY":"260.8498","RA_OF_ASC_NODE":"100.7044","COUNTRY_CODE":"US","DECAY_DATE":null,"NORAD_CAT_ID":"47780","EPHEMERIS_TYPE":"0","EPOCH":"2023-05-26T21:18:12.654144","TIME_SYSTEM":"UTC","INCLINATION":"53.0537","TLE_LINE2":"2 47780  53.0537 100.7044 0001118  99.2618 260.8498 15.06407755124377","OBJECT_TYPE":"PAYLOAD","ECCENTRICITY":"0.00011180","GP_ID":"232585340","OBJECT_NAME":"STARLINK-2213","APOAPSIS":"547.964","OBJECT_ID":"2021-017BL","SITE":"AFETR","TLE_LINE1":"1 47780U 21017BL  23146.88764646  .00003015  00000-0  22118-3 0  9998","CENTER_NAME":"EARTH","LAUNCH_DATE":"2021-03-04","ELEMENT_SET_NO":"999","MEAN_MOTION":"15.06407755","PERIOD":"95.592","RCS_SIZE":"LARGE","CLASSIFICATION_TYPE":"U"},{"OBJECT_NAME":"STARLINK-2223","GP_ID":"232524831","APOAPSIS":"548.272","ECCENTRICITY":"0.00014860","OBJECT_TYPE":"PAYLOAD","TLE_LINE2":"2 47781  53.0543 103.8377 0001486  81.0147 279.1010 15.06390302123586","INCLINATION":"53.0543","TIME_SYSTEM":"UTC","EPOCH":"2023-05-26T04:35:03.747840","RCS_SIZE":"LARGE","CLASSIFICATION_TYPE":"U","PERIOD":"95.593","MEAN_MOTION":"15.06390302","LAUNCH_DATE":"2021-03-04","ELEMENT_SET_NO":"999","CENTER_NAME":"EARTH","TLE_LINE1":"1 47781U 21017BM  23146.19101560  .00001265  00000-0  10383-3 0  9999","OBJECT_ID":"2021-017BM","SITE":"AFETR","FILE":"3917310","MEAN_MOTION_DDOT":"0.0000000000000","REV_AT_EPOCH":"12358","REF_FRAME":"TEME","SEMIMAJOR_AXIS":"6925.378","ARG_OF_PERICENTER":"81.0147","MEAN_MOTION_DOT":"0.00001265","COUNTRY_CODE":"US","RA_OF_ASC_NODE":"103.8377","DECAY_DATE":null,"NORAD_CAT_ID":"47781","EPHEMERIS_TYPE":"0","MEAN_ANOMALY":"279.1010","PERIAPSIS":"546.214","BSTAR":"0.00010383000000","MEAN_ELEMENT_THEORY":"SGP4"},{"INCLINATION":"53.0538","EPOCH":"2023-05-26T09:48:12.710880","TIME_SYSTEM":"UTC","ECCENTRICITY":"0.00011100","GP_ID":"232553692","OBJECT_NAME":"STARLINK-2257","APOAPSIS":"547.987","TLE_LINE2":"2 47787  53.0538 142.8602 0001110  84.8970 275.2146 15.06398400123112","OBJECT_TYPE":"PAYLOAD","CENTER_NAME":"EARTH","LAUNCH_DATE":"2021-03-11","ELEMENT_SET_NO":"999","OBJECT_ID":"2021-018A","SITE":"AFETR","TLE_LINE1":"1 47787U 21018A   23146.40848045  .00001205  00000-0  99803-4 0  9995","PERIOD":"95.592","RCS_SIZE":"LARGE","CLASSIFICATION_TYPE":"U","MEAN_MOTION":"15.06398400","REF_FRAME":"TEME","SEMIMAJOR_AXIS":"6925.353","REV_AT_EPOCH":"12311","ARG_OF_PERICENTER":"84.8970","MEAN_MOTION_DOT":"0.00001205","FILE":"3917630","MEAN_MOTION_DDOT":"0.0000000000000","PERIAPSIS":"546.450","BSTAR":"0.00009980300000","MEAN_ELEMENT_THEORY":"SGP4","COUNTRY_CODE":"US","RA_OF_ASC_NODE":"142.8602","NORAD_CAT_ID":"47787","DECAY_DATE":null,"EPHEMERIS_TYPE":"0","MEAN_ANOMALY":"275.2146"},{"EPOCH":"2023-05-26T05:18:10.963872","TIME_SYSTEM":"UTC","INCLINATION":"53.0544","TLE_LINE2":"2 47788  53.0544 118.6933 0001292  92.7964 267.3173 15.06390563123451","OBJECT_TYPE":"PAYLOAD","ECCENTRICITY":"0.00012920","GP_ID":"232552940","APOAPSIS":"548.137","OBJECT_NAME":"STARLINK-2314","OBJECT_ID":"2021-018B","SITE":"AFETR","TLE_LINE1":"1 47788U 21018B   23146.22096023  .00000688  00000-0  65073-4 0  9993","CENTER_NAME":"EARTH","LAUNCH_DATE":"2021-03-11","ELEMENT_SET_NO":"999","MEAN_MOTION":"15.06390563","PERIOD":"95.593","RCS_SIZE":"LARGE","CLASSIFICATION_TYPE":"U","ARG_OF_PERICENTER":"92.7964","MEAN_MOTION_DOT":"0.00000688","REF_FRAME":"TEME","SEMIMAJOR_AXIS":"6925.377","REV_AT_EPOCH":"12345","MEAN_MOTION_DDOT":"0.0000000000000","FILE":"3917630","BSTAR":"0.00006507300000","MEAN_ELEMENT_THEORY":"SGP4","PERIAPSIS":"546.348","MEAN_ANOMALY":"267.3173","COUNTRY_CODE":"US","RA_OF_ASC_NODE":"118.6933","NORAD_CAT_ID":"47788","DECAY_DATE":null,"EPHEMERIS_TYPE":"0"},{"RA_OF_ASC_NODE":"123.7746","COUNTRY_CODE":"US","NORAD_CAT_ID":"47789","DECAY_DATE":null,"EPHEMERIS_TYPE":"0","MEAN_ANOMALY":"272.7630","PERIAPSIS":"546.362","BSTAR":"0.00006642000000","MEAN_ELEMENT_THEORY":"SGP4","FILE":"3917630","MEAN_MOTION_DDOT":"0.0000000000000","REF_FRAME":"TEME","SEMIMAJOR_AXIS":"6925.377","REV_AT_EPOCH":"12337","ARG_OF_PERICENTER":"87.3505","MEAN_MOTION_DOT":"0.00000708","PERIOD":"95.593","RCS_SIZE":"LARGE","CLASSIFICATION_TYPE":"U","MEAN_MOTION":"15.06390609","CENTER_NAME":"EARTH","LAUNCH_DATE":"2021-03-11","ELEMENT_SET_NO":"999","OBJECT_ID":"2021-018C","SITE":"AFETR","TLE_LINE1":"1 47789U 21018C   23146.20391389  .00000708  00000-0  66420-4 0  9995","ECCENTRICITY":"0.00012710","APOAPSIS":"548.123","GP_ID":"232553190","OBJECT_NAME":"STARLINK-2315","TLE_LINE2":"2 47789  53.0533 123.7746 0001271  87.3505 272.7630 15.06390609123377","OBJECT_TYPE":"PAYLOAD","INCLINATION":"53.0533","EPOCH":"2023-05-26T04:53:38.160096","TIME_SYSTEM":"UTC"},{"MEAN_ELEMENT_THEORY":"SGP4","BSTAR":"0.00006486000000","PERIAPSIS":"546.319","MEAN_ANOMALY":"253.4737","NORAD_CAT_ID":"47790","DECAY_DATE":null,"EPHEMERIS_TYPE":"0","RA_OF_ASC_NODE":"110.6060","COUNTRY_CODE":"US","MEAN_MOTION_DOT":"0.00000685","ARG_OF_PERICENTER":"106.6392","REV_AT_EPOCH":"12362","SEMIMAJOR_AXIS":"6925.335","REF_FRAME":"TEME","MEAN_MOTION_DDOT":"0.0000000000000","FILE":"3917850","TLE_LINE1":"1 47790U 21018D   23146.90883625  .00000685  00000-0  64860-4 0  9993","SITE":"AFETR","OBJECT_ID":"2021-018D","LAUNCH_DATE":"2021-03-11","ELEMENT_SET_NO":"999","CENTER_NAME":"EARTH","MEAN_MOTION":"15.06404406","CLASSIFICATION_TYPE":"U","RCS_SIZE":"LARGE","PERIOD":"95.592","TIME_SYSTEM":"UTC","EPOCH":"2023-05-26T21:48:43.452000","INCLINATION":"53.0542","OBJECT_TYPE":"PAYLOAD","TLE_LINE2":"2 47790  53.0542 110.6060 0001272 106.6392 253.4737 15.06404406123626","APOAPSIS":"548.081","GP_ID":"232585591","OBJECT_NAME":"STARLINK-2319","ECCENTRICITY":"0.00012720"},{"TLE_LINE1":"1 47791U 21018E   23146.26473884  .00001974  00000-0  15138-3 0  9990","OBJECT_ID":"2021-018E","SITE":"AFETR","LAUNCH_DATE":"2021-03-11","ELEMENT_SET_NO":"999","CENTER_NAME":"EARTH","MEAN_MOTION":"15.06400473","RCS_SIZE":"LARGE","CLASSIFICATION_TYPE":"U","PERIOD":"95.592","TIME_SYSTEM":"UTC","EPOCH":"2023-05-26T06:21:13.435776","INCLINATION":"53.0544","OBJECT_TYPE":"PAYLOAD","TLE_LINE2":"2 47791  53.0544 143.5056 0001247  81.8502 278.2628 15.06400473123105","GP_ID":"232554192","APOAPSIS":"548.076","OBJECT_NAME":"STARLINK-2322","ECCENTRICITY":"0.00012470","BSTAR":"0.00015138000000","MEAN_ELEMENT_THEORY":"SGP4","PERIAPSIS":"546.349","MEAN_ANOMALY":"278.2628","COUNTRY_CODE":"US","RA_OF_ASC_NODE":"143.5056","NORAD_CAT_ID":"47791","DECAY_DATE":null,"EPHEMERIS_TYPE":"0","ARG_OF_PERICENTER":"81.8502","MEAN_MOTION_DOT":"0.00001974","REV_AT_EPOCH":"12310","REF_FRAME":"TEME","SEMIMAJOR_AXIS":"6925.347","MEAN_MOTION_DDOT":"0.0000000000000","FILE":"3917630"},{"PERIOD":"95.592","CLASSIFICATION_TYPE":"U","RCS_SIZE":"LARGE","MEAN_MOTION":"15.06394728","CENTER_NAME":"EARTH","ELEMENT_SET_NO":"999","LAUNCH_DATE":"2021-03-11","SITE":"AFETR","OBJECT_ID":"2021-018F","TLE_LINE1":"1 47792U 21018F   23146.21127905 -.00000595  00000-0 -21044-4 0  9990","ECCENTRICITY":"0.00011410","GP_ID":"232552441","APOAPSIS":"548.020","OBJECT_NAME":"STARLINK-2334","TLE_LINE2":"2 47792  53.0538 123.7418 0001141  96.7877 263.3242 15.06394728123375","OBJECT_TYPE":"PAYLOAD","INCLINATION":"53.0538","EPOCH":"2023-05-26T05:04:14.509920","TIME_SYSTEM":"UTC","NORAD_CAT_ID":"47792","DECAY_DATE":null,"EPHEMERIS_TYPE":"0","RA_OF_ASC_NODE":"123.7418","COUNTRY_CODE":"US","MEAN_ANOMALY":"263.3242","PERIAPSIS":"546.440","MEAN_ELEMENT_THEORY":"SGP4","BSTAR":"-0.00002104400000","FILE":"3917630","MEAN_MOTION_DDOT":"0.0000000000000","SEMIMAJOR_AXIS":"6925.365","REF_FRAME":"TEME","REV_AT_EPOCH":"12337","MEAN_MOTION_DOT":"-0.00000595","ARG_OF_PERICENTER":"96.7877"}];
